******** Week 1020 almanac for PRN-19 ********
ID:                         19
Health:                     000
Eccentricity:               0.9434700012E-002
Time of Applicability(s):  589824.0000
Orbital Inclination(rad):   0.9818759355
Rate of Right Ascen(r/s):  -0.7966046104E-008
SQRT(A)  (m 1/2):           5153.581055
Right Ascen at Week(rad):  -0.2557835066E+001
Argument of Perigee(rad):   1.358150487
Mean Anom(rad):            -0.2810922047E+001
Af0(s):                    -0.3414154053E-003
Af1(s/s):                   0.3637978807E-011
week:                        1020

******** Week 1020 almanac for PRN-20 ********
ID:                         20
Health:                     000
Eccentricity:               0.4364013672E-002
Time of Applicability(s):  589824.0000
Orbital Inclination(rad):   0.9302958315
Rate of Right Ascen(r/s):  -0.8046049436E-008
SQRT(A)  (m 1/2):           5153.625000
Right Ascen at Week(rad):  -0.6807657683E+000
Argument of Perigee(rad):   2.308152729
Mean Anom(rad):            -0.1785683966E+001
Af0(s):                     0.5235671997E-003
Af1(s/s):                   0.0000000000E+000
week:                        1020

******** Week 1020 almanac for PRN-21 ********
ID:                         21
Health:                     000
Eccentricity:               0.2478170395E-001
Time of Applicability(s):  589824.0000
Orbital Inclination(rad):   0.9472415255
Rate of Right Ascen(r/s):  -0.8274630386E-008
SQRT(A)  (m 1/2):           5153.721680
Right Ascen at Week(rad):  -0.1666611703E+001
Argument of Perigee(rad):  -1.463564104
Mean Anom(rad):             0.3042651267E+001
Af0(s):                    -0.2307891846E-003
Af1(s/s):                   0.7275957614E-011
week:                        1020

******** Week 1020 almanac for PRN-22 ********
ID:                         22
Health:                     000
Eccentricity:               0.7264137268E-002
Time of Applicability(s):  589824.0000
Orbital Inclination(rad):   0.9270600907
Rate of Right Ascen(r/s):  -0.8091765626E-008
SQRT(A)  (m 1/2):           5153.500488
Right Ascen at Week(rad):  -0.6318536524E+000
Argument of Perigee(rad):  -1.399760090
Mean Anom(rad):            -0.4189310520E-001
Af0(s):                    -0.6656646729E-003
Af1(s/s):                  -0.7275957614E-011
week:                        1020

******** Week 1020 almanac for PRN-23 ********
ID:                         23
Health:                     000
Eccentricity:               0.1293182373E-001
Time of Applicability(s):  589824.0000
Orbital Inclination(rad):   0.9436882028
Rate of Right Ascen(r/s):  -0.8068907531E-008
SQRT(A)  (m 1/2):           5153.560547
Right Ascen at Week(rad):   0.4662032016E+000
Argument of Perigee(rad):  -2.286910315
Mean Anom(rad):            -0.6925676083E+000
Af0(s):                    -0.1935958862E-003
Af1(s/s):                   0.0000000000E+000
week:                        1020

******** Week 1020 almanac for PRN-24 ********
ID:                         24
Health:                     000
Eccentricity:               0.8233547211E-002
Time of Applicability(s):  589824.0000
Orbital Inclination(rad):   0.9388705444
Rate of Right Ascen(r/s):  -0.8228914196E-008
SQRT(A)  (m 1/2):           5153.659668
Right Ascen at Week(rad):   0.1482373345E+001
Argument of Perigee(rad):   0.603549160
Mean Anom(rad):            -0.1173296065E+001
Af0(s):                    -0.6389617920E-004
Af1(s/s):                   0.0000000000E+000
week:                        1020

******** Week 1020 almanac for PRN-25 ********
ID:                         25
Health:                     000
Eccentricity:               0.8344650269E-002
Time of Applicability(s):  589824.0000
Orbital Inclination(rad):   0.9711141015
Rate of Right Ascen(r/s):  -0.7703178011E-008
SQRT(A)  (m 1/2):           5153.699219
Right Ascen at Week(rad):   0.2582666380E+001
Argument of Perigee(rad):   0.870453953
Mean Anom(rad):            -0.3126694015E+001
Af0(s):                    -0.7343292236E-003
Af1(s/s):                  -0.3637978807E-011
week:                        1020

******** Week 1020 almanac for PRN-26 ********
ID:                         26
Health:                     000
Eccentricity:               0.3704071045E-002
Time of Applicability(s):  589824.0000
Orbital Inclination(rad):   0.9524306949
Rate of Right Ascen(r/s):  -0.7886042771E-008
SQRT(A)  (m 1/2):           5153.524414
Right Ascen at Week(rad):   0.2555420620E+001
Argument of Perigee(rad):   0.138529775
Mean Anom(rad):             0.2490723032E+001
Af0(s):                     0.1506805420E-003
Af1(s/s):                   0.1091393642E-010
week:                        1020

******** Week 1020 almanac for PRN-27 ********
ID:                         27
Health:                     000
Eccentricity:               0.6855010986E-002
Time of Applicability(s):  589824.0000
Orbital Inclination(rad):   0.9786701553
Rate of Right Ascen(r/s):  -0.7977475151E-008
SQRT(A)  (m 1/2):           5153.590820
Right Ascen at Week(rad):  -0.2659925682E+001
Argument of Perigee(rad):   0.442368825
Mean Anom(rad):             0.7229858181E+000
Af0(s):                    -0.8773803711E-004
Af1(s/s):                  -0.7275957614E-011
week:                        1020

******** Week 1020 almanac for PRN-28 ********
ID:                         28
Health:                     000
Eccentricity:               0.1916360855E-001
Time of Applicability(s):  589824.0000
Orbital Inclination(rad):   0.9830024526
Rate of Right Ascen(r/s):  -0.7577458489E-008
SQRT(A)  (m 1/2):           5153.663086
Right Ascen at Week(rad):   0.2668984633E+001
Argument of Perigee(rad):  -1.471061360
Mean Anom(rad):             0.1548562594E+001
Af0(s):                     0.7667541504E-003
Af1(s/s):                   0.0000000000E+000
week:                        1020

******** Week 1020 almanac for PRN-29 ********
ID:                         29
Health:                     000
Eccentricity:               0.7963180542E-003
Time of Applicability(s):  589824.0000
Orbital Inclination(rad):   0.9855491004
Rate of Right Ascen(r/s):  -0.7954617056E-008
SQRT(A)  (m 1/2):           5153.506348
Right Ascen at Week(rad):  -0.2593190777E+001
Argument of Perigee(rad):   1.453270404
Mean Anom(rad):             0.1555543030E+001
Af0(s):                     0.2479553223E-003
Af1(s/s):                  -0.7275957614E-011
week:                        1020

******** Week 1020 almanac for PRN-30 ********
ID:                         30
Health:                     000
Eccentricity:               0.3761768341E-002
Time of Applicability(s):  589824.0000
Orbital Inclination(rad):   0.9411834998
Rate of Right Ascen(r/s):  -0.8194627053E-008
SQRT(A)  (m 1/2):           5153.551270
Right Ascen at Week(rad):   0.1576404570E+001
Argument of Perigee(rad):  -3.019648671
Mean Anom(rad):            -0.2051742372E+001
Af0(s):                    -0.6961822510E-004
Af1(s/s):                  -0.7275957614E-011
week:                        1020

******** Week 1020 almanac for PRN-31 ********
ID:                         31
Health:                     000
Eccentricity:               0.9226799011E-002
Time of Applicability(s):  589824.0000
Orbital Inclination(rad):   0.9602683779
Rate of Right Ascen(r/s):  -0.7988904198E-008
SQRT(A)  (m 1/2):           5153.519531
Right Ascen at Week(rad):   0.1560916082E+001
Argument of Perigee(rad):  -0.005101160
Mean Anom(rad):            -0.2465305240E+001
Af0(s):                     0.5149841309E-004
Af1(s/s):                  -0.3637978807E-011
week:                        1020

******** Week 1020 almanac for PRN-32 ********
ID:                         32
Health:                     000
Eccentricity:               0.2721786499E-002
Time of Applicability(s):  589824.0000
Orbital Inclination(rad):   0.9571524795
Rate of Right Ascen(r/s):  -0.7943188009E-008
SQRT(A)  (m 1/2):           5153.706055
Right Ascen at Week(rad):   0.4769953707E+000
Argument of Perigee(rad):  -2.587492652
Mean Anom(rad):             0.1421073660E+001
Af0(s):                    -0.1783370972E-003
Af1(s/s):                   0.1818989404E-010
week:                        1020